[{"OBJECT_NAME":"IRIDIUM 104","OBJECT_ID":"2017-003F","EPOCH":"2026-03-09T17:16:26.282496","MEAN_MOTION":14.34217394,"ECCENTRICITY":0.0002202,"INCLINATION":86.3982,"RA_OF_ASC_NODE":130.0736,"ARG_OF_PERICENTER":87.6094,"MEAN_ANOMALY":272.5354,"EPHEMERIS_TYPE":0,"CLASSIFICATION_TYPE":"U","NORAD_CAT_ID":41922,"ELEMENT_SET_NO":999,"REV_AT_EPOCH":47901,"BSTAR":-2.584642e-5,"MEAN_MOTION_DOT":-5.3e-7,"MEAN_MOTION_DDOT":0},{"OBJECT_NAME":"CZ-6A DEB","OBJECT_ID":"2022-151ACC","EPOCH":"2026-03-08T23:38:41.673120","MEAN_MOTION":14.24855893,"ECCENTRICITY":0.00425235,"INCLINATION":98.7539,"RA_OF_ASC_NODE":90.8779,"ARG_OF_PERICENTER":277.0005,"MEAN_ANOMALY":82.6338,"EPHEMERIS_TYPE":0,"CLASSIFICATION_TYPE":"U","NORAD_CAT_ID":56260,"ELEMENT_SET_NO":999,"REV_AT_EPOCH":15430,"BSTAR":0.00038380989,"MEAN_MOTION_DOT":8.59e-6,"MEAN_MOTION_DDOT":0}]
